CCSDS_OEM_VERS = 2.0
CREATION_DATE = 2024-09-29T19:00:54.978000000
ORIGINATOR = NONE

META_START
OBJECT_NAME = _SCPACE_OEM
OBJECT_ID = 1
CENTER_NAME = EARTH
REF_FRAME = EME2000
TIME_SYSTEM = UTC
START_TIME = 2024-09-28T08:00:00.000000000
STOP_TIME = 2024-09-29T16:00:00.000000000
INTERPOLATION = LAGRANGE
INTERPOLATION_DEGREE = 8
META_STOP

2024-09-28T13:42:00.000000000 -1.441050514763542e+02  1.006964966953483e+03  6.969813300813669e+03  6.965535680725046e+00  2.823851253055535e+00 -2.630994483000330e-01
2024-09-28T13:43:00.000000000  2.738368393452337e+02  1.174224546086945e+03  6.939768983564932e+03  6.961113523099700e+00  2.749568208316064e+00 -7.380367422812439e-01
2024-09-28T13:44:00.000000000  6.906602258595170e+02  1.336688636768830e+03  6.881308992488857e+03  6.928264297471979e+00  2.664055531033606e+00 -1.209967216643280e+00
2024-09-28T13:45:00.000000000  1.104662843042997e+03  1.493693618400906e+03  6.794671392282137e+03  6.867118525252764e+00  2.567659072982438e+00 -1.676971378384453e+00
2024-09-28T13:46:00.000000000  1.514153551725669e+03  1.644597898832970e+03  6.680208933152726e+03  6.777919859240678e+00  2.460768240769667e+00 -2.137148172127037e+00
2024-09-28T13:47:00.000000000  1.917459396824806e+03  1.788784589516759e+03  6.538387634751924e+03  6.661024666954922e+00  2.343814638184867e+00 -2.588622232075691e+00
2024-09-28T13:48:00.000000000  2.312932064745733e+03  1.925663892281312e+03  6.369785131744796e+03  6.516901265059853e+00  2.217270774805330e+00 -3.029550927424532e+00
2024-09-28T13:49:00.000000000  2.698954684848871e+03  2.054675557695101e+03  6.175088423303502e+03  6.346128494364030e+00  2.081648605736874e+00 -3.458131828429780e+00
2024-09-28T13:50:00.000000000  3.073948374402789e+03  2.175291190108185e+03  5.955091288824744e+03  6.149394137027250e+00  1.937497812152868e+00 -3.872610061607431e+00
2024-09-28T13:51:00.000000000  3.436378767988378e+03  2.287016462660886e+03  5.710691159037165e+03  5.927492592847013e+00  1.785403549123276e+00 -4.271286063905185e+00
2024-09-28T13:52:00.000000000  3.784762203230022e+03  2.389393140968615e+03  5.442885665581738e+03  5.681321710670563e+00  1.625984152949161e+00 -4.652522404350632e+00
2024-09-28T13:53:00.000000000  4.117672139444277e+03  2.482001089408267e+03  5.152768445398577e+03  5.411879631037881e+00  1.459888938539235e+00 -5.014750393370528e+00
2024-09-28T13:54:00.000000000  4.433744728058665e+03  2.564459966565206e+03  4.841525142915763e+03  5.120262049808313e+00  1.287795986999724e+00 -5.356476810786759e+00
2024-09-28T13:55:00.000000000  4.731684318961697e+03  2.636430828297835e+03  4.510428954773692e+03  4.807657970276454e+00  1.110409231640223e+00 -5.676291040171416e+00
2024-09-28T13:56:00.000000000  5.010269766779425e+03  2.697617771248604e+03  4.160834528107260e+03  4.475343579539541e+00  9.284548960048605e-01 -5.972871608784645e+00
2024-09-28T13:57:00.000000000  5.268358732838161e+03  2.747769021919668e+03  3.794173410462327e+03  4.124678593512805e+00  7.426792021283972e-01 -6.244990424611344e+00
2024-09-28T13:58:00.000000000  5.504893063552692e+03  2.786678128314013e+03  3.411947411953361e+03  3.757100996933019e+00  5.538451300198232e-01 -6.491519499636086e+00
2024-09-28T13:59:00.000000000  5.718903032099233e+03  2.814184842314555e+03  3.015723073976499e+03  3.374121244166355e+00  3.627294197069991e-01 -6.711436283206981e+00
2024-09-28T14:00:00.000000000  5.909511385015787e+03  2.830175825920913e+03  2.607125200012238e+03  2.977315697061774e+00  1.701193701054774e-01 -6.903828312019752e+00
2024-09-28T14:01:00.000000000  6.075937330806244e+03  2.834585223178782e+03  2.187829916643871e+03  2.568320217248754e+00 -2.319043893444442e-02 -7.067897296371650e+00
2024-09-28T14:02:00.000000000  6.217499978998282e+03  2.827394994654366e+03  1.759557412889359e+03  2.148823463590527e+00 -2.164016902155147e-01 -7.202963521982277e+00
2024-09-28T14:03:00.000000000  6.333621022616485e+03  2.808635030898956e+03  1.324065399938275e+03  1.720559950908402e+00 -4.087158750184758e-01 -7.308469616259372e+00
2024-09-28T14:04:00.000000000  6.423827471641444e+03  2.778383065166663e+03  8.831412616633764e+02  1.285301388273191e+00 -5.993383441410244e-01 -7.383983339490840e+00
2024-09-28T14:05:00.000000000  6.487753472172468e+03  2.736764170199604e+03  4.385938820190701e+02  8.448480272613338e-01 -7.874819724320465e-01 -7.429199448962796e+00
2024-09-28T14:06:00.000000000  6.525141986042914e+03  2.683950511718871e+03 -7.752708576501614e+00  4.010218996988620e-01 -9.723698453344256e-01 -7.443940490435100e+00
2024-09-28T14:07:00.000000000  6.535845617351141e+03  2.620160380122144e+03 -4.540679420357233e+02 -4.434222733450889e-02 -1.153239240752395e+00 -7.428158140186266e+00
2024-09-28T14:08:00.000000000  6.519827291304637e+03  2.545657343436556e+03 -8.985221525322664e+02 -4.894048734462770e-01 -1.329344993437401e+00 -7.381932600256886e+00
2024-09-28T14:09:00.000000000  6.477160126715322e+03  2.460748974126228e+03 -1.339294663832768e+03 -9.323298637633020e-01 -1.499962717913291e+00 -7.305471888116452e+00
2024-09-28T14:10:00.000000000  6.408027258876231e+03  2.365785744186184e+03 -1.774580608684290e+03 -1.371291296252896e+00 -1.664391712740596e+00 -7.199111410983059e+00
2024-09-28T14:11:00.000000000  6.312720901599153e+03  2.261159370960742e+03 -2.202599151299720e+03 -1.804482895360531e+00 -1.821958838962401e+00 -7.063312562114555e+00
2024-09-28T14:12:00.000000000  6.191640246609227e+03  2.147300769027534e+03 -2.621601450588563e+03 -2.230127402803554e+00 -1.972021845927440e+00 -6.898659633496185e+00
2024-09-28T14:13:00.000000000  6.045291283782161e+03  2.024678965009374e+03 -3.029875838219968e+03 -2.646481542427234e+00 -2.113970548343893e+00 -6.705856245814658e+00
2024-09-28T14:14:00.000000000  5.874282457243689e+03  1.893798148165312e+03 -3.425757612353539e+03 -3.051846566205008e+00 -2.247230484670068e+00 -6.485721455546354e+00
2024-09-28T14:15:00.000000000  5.679322595821215e+03  1.755195836527050e+03 -3.807634479180275e+03 -3.444573903117290e+00 -2.371264720368361e+00 -6.239185367753715e+00
2024-09-28T14:16:00.000000000  5.461218067250285e+03  1.609440700208283e+03 -4.173952980473867e+03 -3.823071317274211e+00 -2.485575685397673e+00 -5.967284310713493e+00
2024-09-28T14:17:00.000000000  5.220869010500464e+03  1.457130137652011e+03 -4.523224618508742e+03 -4.185809517385529e+00 -2.589707124803349e+00 -5.671156126955778e+00
2024-09-28T14:18:00.000000000  4.959265211513386e+03  1.298887560786867e+03 -4.854032293048995e+03 -4.531328573166089e+00 -2.683245864968874e+00 -5.352033958209902e+00
2024-09-28T14:19:00.000000000  4.677481755457150e+03  1.135359812375447e+03 -5.165035580199083e+03 -4.858242897739730e+00 -2.765823053906975e+00 -5.011240159340154e+00
2024-09-28T14:20:00.000000000  4.376674374945660e+03  9.672144639273426e+02 -5.454975959192609e+03 -5.165245801131556e+00 -2.837115068171018e+00 -4.650180381731079e+00
2024-09-28T14:21:00.000000000  4.058074916757204e+03  7.951371777992380e+02 -5.722681687096235e+03 -5.451113639215282e+00 -2.896844145806611e+00 -4.270337875863110e+00
2024-09-28T14:22:00.000000000  3.722986029495251e+03  6.198289157809104e+02 -5.967072089820399e+03 -5.714710363258766e+00 -2.944779237291710e+00 -3.873267663986868e+00
2024-09-28T14:23:00.000000000  3.372775838547382e+03  4.420030962105466e+02 -6.187161775408804e+03 -5.954991768722390e+00 -2.980737026728257e+00 -3.460590250970264e+00
2024-09-28T14:24:00.000000000  3.008872071780239e+03  2.623825645871806e+02 -6.382064454373762e+03 -6.171009736386874e+00 -3.004582794575985e+00 -3.033983836485120e+00
2024-09-28T14:25:00.000000000  2.632756665023709e+03  8.169696835531121e+01 -6.550995919415145e+03 -6.361914428304530e+00 -3.016230037210079e+00 -2.595176862829665e+00
2024-09-28T14:26:00.000000000  2.245959362894261e+03 -9.932041529758997e+01 -6.693277138568988e+03 -6.526955946677111e+00 -3.015639702269018e+00 -2.145941412487389e+00
2024-09-28T14:27:00.000000000  1.850051919587450e+03 -2.799353405899861e+02 -6.808336540725147e+03 -6.665486742523695e+00 -3.002820361155626e+00 -1.688087856511800e+00
2024-09-28T14:28:00.000000000  1.446641757603551e+03 -4.594155309649317e+02 -6.895712136306517e+03 -6.776964135295226e+00 -2.977828374719899e+00 -1.223457173779799e+00
2024-09-28T14:29:00.000000000  1.037365624346847e+03 -6.370335398717062e+02 -6.955053125172536e+03 -6.860950745352278e+00 -2.940766976314117e+00 -7.539136698022032e-01
2024-09-28T14:30:00.000000000  6.238836157256803e+02 -8.120693908905060e+02 -6.986121180012174e+03 -6.917114940937811e+00 -2.891785690728271e+00 -2.813405201723975e-01
2024-09-28T14:31:00.000000000  2.078724672722622e+02 -9.838134829299036e+02 -6.988791331226143e+03 -6.945233659000902e+00 -2.831080869645836e+00  1.923661724063309e-01
2024-09-28T14:32:00.000000000 -2.089810546717918e+02 -1.151569442107843e+03 -6.963052720144045e+03 -6.945194283814092e+00 -2.758895299441446e+00  6.653058659332832e-01
2024-09-28T14:33:00.000000000 -6.249873494600066e+02 -1.314656976574231e+03 -6.909008040380033e+03 -6.916994470098046e+00 -2.675516390791519e+00  1.135582665252962e+00
2024-09-28T14:34:00.000000000 -1.038459333324294e+03 -1.472414168444908e+03 -6.826873804412079e+03 -6.860740553726828e+00 -2.581274708940447e+00  1.601309818090240e+00
2024-09-28T14:35:00.000000000 -1.447719615166427e+03 -1.624200212384711e+03 -6.716979229461554e+03 -6.776648026930554e+00 -2.476543581592466e+00  2.060616160288836e+00
2024-09-28T14:36:00.000000000 -1.851107045615841e+03 -1.769397986087086e+03 -6.579765145343559e+03 -6.665041758155239e+00 -2.361738298087433e+00  2.511653285108932e+00
2024-09-28T14:37:00.000000000 -2.246983256254316e+03 -1.907416506038793e+03 -6.415782422294458e+03 -6.526355125064558e+00 -2.237314275991046e+00  2.952603223711062e+00
2024-09-28T14:38:00.000000000 -2.633739131549543e+03 -2.037693275778134e+03 -6.225689893916937e+03 -6.361128033393195e+00 -2.103765071625028e+00  3.381685342643877e+00
